[{"OBJECT_NAME":"STARLINK-30503","OBJECT_ID":"2023-151M","EPOCH":"2026-03-09T04:12:32.982336","MEAN_MOTION":15.27599044,"ECCENTRICITY":0.00020611,"INCLINATION":43.0027,"RA_OF_ASC_NODE":339.2227,"ARG_OF_PERICENTER":264.9376,"MEAN_ANOMALY":95.1241,"EPHEMERIS_TYPE":0,"CLASSIFICATION_TYPE":"U","NORAD_CAT_ID":57975,"ELEMENT_SET_NO":999,"REV_AT_EPOCH":13568,"BSTAR":-0.0005000993,"MEAN_MOTION_DOT":-0.00014007,"MEAN_MOTION_DDOT":0},{"OBJECT_NAME":"KUIPER-00252","OBJECT_ID":"2025-301AA","EPOCH":"2026-03-09T22:00:01.999584","MEAN_MOTION":15.32961042,"ECCENTRICITY":0.00108625,"INCLINATION":51.8682,"RA_OF_ASC_NODE":64.6463,"ARG_OF_PERICENTER":55.9089,"MEAN_ANOMALY":330.8749,"EPHEMERIS_TYPE":0,"CLASSIFICATION_TYPE":"U","NORAD_CAT_ID":67157,"ELEMENT_SET_NO":999,"REV_AT_EPOCH":542,"BSTAR":-0.017504489,"MEAN_MOTION_DOT":-0.00529484,"MEAN_MOTION_DDOT":0}]
